{
  "norad_id": 48326,
  "name": "STARLINK-2498",
  "history": [
    {
      "epoch": "2026-05-04T12:44:42.086688Z",
      "apogee_km": 471.1660079118092,
      "perigee_km": 470.10307856829877,
      "latitude_deg": -2.149962480930434e-05,
      "longitude_deg": 147.8813787420222,
      "height_km": 471.6162700640899,
      "semi_major_axis_km": 6848.771543240054,
      "eccentricity": 7.76e-05,
      "inclination_deg": 53.1605,
      "raan_deg": 201.4758,
      "arg_perigee_deg": 98.9111,
      "mean_anomaly_deg": 261.1978,
      "mean_motion_rev_day": 15.31735376
    },
    {
      "epoch": "2026-05-05T16:55:59.476800Z",
      "apogee_km": 471.44918235238765,
      "perigee_km": 469.93011260197727,
      "latitude_deg": -2.9014211239639045e-05,
      "longitude_deg": 78.43446318833612,
      "height_km": 471.37687755304876,
      "semi_major_axis_km": 6848.826647477183,
      "eccentricity": 0.0001109,
      "inclination_deg": 53.1586,
      "raan_deg": 196.009,
      "arg_perigee_deg": 73.826,
      "mean_anomaly_deg": 286.2863,
      "mean_motion_rev_day": 15.3171689
    },
    {
      "epoch": "2026-05-06T13:17:27.778272Z",
      "apogee_km": 471.2775583075063,
      "perigee_km": 470.03655682427507,
      "latitude_deg": 6.660254997664127e-05,
      "longitude_deg": 128.28124071970026,
      "height_km": 471.5509497743752,
      "semi_major_axis_km": 6848.79405756589,
      "eccentricity": 9.06e-05,
      "inclination_deg": 53.1578,
      "raan_deg": 192.0597,
      "arg_perigee_deg": 89.5362,
      "mean_anomaly_deg": 270.5744,
      "mean_motion_rev_day": 15.31727823
    },
    {
      "epoch": "2026-05-07T20:36:41.025888Z",
      "apogee_km": 471.3572855390212,
      "perigee_km": 470.1244875194461,
      "latitude_deg": 1.7790272738905537e-05,
      "longitude_deg": 11.114620351793082,
      "height_km": 471.82455234832423,
      "semi_major_axis_km": 6848.877886529233,
      "eccentricity": 9e-05,
      "inclination_deg": 53.1574,
      "raan_deg": 185.9846,
      "arg_perigee_deg": 107.44,
      "mean_anomaly_deg": 252.67,
      "mean_motion_rev_day": 15.31699701
    },
    {
      "epoch": "2026-05-08T20:06:05.578848Z",
      "apogee_km": 471.38128063782733,
      "perigee_km": 469.9772733010486,
      "latitude_deg": 2.064603962816055e-05,
      "longitude_deg": 13.238909301721339,
      "height_km": 471.44804157472487,
      "semi_major_axis_km": 6848.816276969438,
      "eccentricity": 0.0001025,
      "inclination_deg": 53.1577,
      "raan_deg": 181.4259,
      "arg_perigee_deg": 79.3272,
      "mean_anomaly_deg": 280.7845,
      "mean_motion_rev_day": 15.31720369
    },
    {
      "epoch": "2026-05-09T13:19:39.750816Z",
      "apogee_km": 471.30752731176017,
      "perigee_km": 470.1281545081547,
      "latitude_deg": 9.875009182122245e-06,
      "longitude_deg": 110.7999633184143,
      "height_km": 471.64833844947464,
      "semi_major_axis_km": 6848.854840909957,
      "eccentricity": 8.61e-05,
      "inclination_deg": 53.1577,
      "raan_deg": 178.0868,
      "arg_perigee_deg": 93.0653,
      "mean_anomaly_deg": 267.0447,
      "mean_motion_rev_day": 15.31707432
    },
    {
      "epoch": "2026-05-10T09:41:08.702880Z",
      "apogee_km": 471.34030749454996,
      "perigee_km": 470.03492152302533,
      "latitude_deg": -4.386760813120718e-05,
      "longitude_deg": 160.6430133065948,
      "height_km": 471.5720427397751,
      "semi_major_axis_km": 6848.824614508788,
      "eccentricity": 9.53e-05,
      "inclination_deg": 53.1591,
      "raan_deg": 174.1366,
      "arg_perigee_deg": 88.7203,
      "mean_anomaly_deg": 271.3907,
      "mean_motion_rev_day": 15.31717572
    },
    {
      "epoch": "2026-05-11T09:10:33.411360Z",
      "apogee_km": 471.3582136407913,
      "perigee_km": 470.1115819779516,
      "latitude_deg": 4.39123037193234e-05,
      "longitude_deg": 162.7674179579924,
      "height_km": 471.72893672946867,
      "semi_major_axis_km": 6848.871897809371,
      "eccentricity": 9.101e-05,
      "inclination_deg": 53.1588,
      "raan_deg": 169.5786,
      "arg_perigee_deg": 98.7682,
      "mean_anomaly_deg": 261.3423,
      "mean_motion_rev_day": 15.3170171
    },
    {
      "epoch": "2026-05-12T19:37:41.683584Z",
      "apogee_km": 471.3471260709075,
      "perigee_km": 470.08419764006067,
      "latitude_deg": -8.266586118709431e-06,
      "longitude_deg": -2.114093766629473,
      "height_km": 471.4454954363549,
      "semi_major_axis_km": 6848.852661855483,
      "eccentricity": 9.22e-05,
      "inclination_deg": 53.1582,
      "raan_deg": 162.8965,
      "arg_perigee_deg": 74.4621,
      "mean_anomaly_deg": 285.6482,
      "mean_motion_rev_day": 15.31708163
    },
    {
      "epoch": "2026-05-13T08:09:22.767840Z",
      "apogee_km": 471.6967068867807,
      "perigee_km": 469.6858908982258,
      "latitude_deg": -2.2259796923100076e-05,
      "longitude_deg": 167.0187018038696,
      "height_km": 471.6531119904746,
      "semi_major_axis_km": 6848.828298892503,
      "eccentricity": 0.0001468,
      "inclination_deg": 53.1595,
      "raan_deg": 160.465,
      "arg_perigee_deg": 93.6193,
      "mean_anomaly_deg": 266.4976,
      "mean_motion_rev_day": 15.31716336
    },
    {
      "epoch": "2026-05-14T07:38:47.002848Z",
      "apogee_km": 471.43571977747706,
      "perigee_km": 469.96376778450394,
      "latitude_deg": -3.2149596744519704e-05,
      "longitude_deg": 169.14791303068657,
      "height_km": 471.4112157720396,
      "semi_major_axis_km": 6848.83674378099,
      "eccentricity": 0.00010746,
      "inclination_deg": 53.159,
      "raan_deg": 155.9099,
      "arg_perigee_deg": 75.2479,
      "mean_anomaly_deg": 284.8641,
      "mean_motion_rev_day": 15.31713503
    }
  ]
}